{"type": "FeatureCollection", "features": [ {"type": "Feature", "properties": {"norad_id": 39766, "name": "ALOS-2", "group": "resource", "lat": -62.26345443138815, "lon": 85.53495160824227, "alt_km": 638.9977073841919, "timestamp": "2025-12-01T03:58:49.207498+00:00", "meta": {"OBJECT_NAME": "ALOS-2", "OBJECT_ID": "2014-029A", "EPOCH": "2025-11-30T20:09:01.568736", "MEAN_MOTION": 14.79499458, "ECCENTRICITY": 0.0001366, "INCLINATION": 97.9232, "RA_OF_ASC_NODE": 69.855, "ARG_OF_PERICENTER": 99.6181, "MEAN_ANOMALY": 260.5185, "EPHEMERIS_TYPE": 0, "CLASSIFICATION_TYPE": "U", "NORAD_CAT_ID": 39766, "ELEMENT_SET_NO": 999, "REV_AT_EPOCH": 62225, "BSTAR": 0.00027599, "MEAN_MOTION_DOT": 2.012e-05, "MEAN_MOTION_DDOT": 0, "GROUP": "resource"}, "tle": {"line1": "1 39766U 14029A   25334.83960149  .00002012  00000+0  27599-3 0  9993", "line2": "2 39766  97.9232  69.8550 0001366  99.6181 260.5185 14.79499458622252"}}, "geometry": {"type": "Point", "coordinates": [85.53495160824227, -62.26345443138815]}}, {"type": "Feature", "properties": {"norad_id": 40010, "name": "KAZEOSAT 2", "group": "resource", "lat": -29.223735864956648, "lon": -175.66695398035742, "alt_km": 618.2227750865495, "timestamp": "2025-12-01T03:58:49.207509+00:00", "meta": {"OBJECT_NAME": "KAZEOSAT 2", "OBJECT_ID": "2014-033A", "EPOCH": "2025-11-30T20:01:40.306656", "MEAN_MOTION": 14.85135724, "ECCENTRICITY": 0.0007179, "INCLINATION": 97.5513, "RA_OF_ASC_NODE": 179.7631, "ARG_OF_PERICENTER": 251.7313, "MEAN_ANOMALY": 108.3121, "EPHEMERIS_TYPE": 0, "CLASSIFICATION_TYPE": "U", "NORAD_CAT_ID": 40010, "ELEMENT_SET_NO": 999, "REV_AT_EPOCH": 61951, "BSTAR": 0.00010072, "MEAN_MOTION_DOT": 8.12e-06, "MEAN_MOTION_DDOT": 0, "GROUP": "resource"}, "tle": {"line1": "1 40010U 14033A   25334.83449429  .00000812  00000+0  10072-3 0  9999", "line2": "2 40010  97.5513 179.7631 0007179 251.7313 108.3121 14.85135724619515"}}, "geometry": {"type": "Point", "coordinates": [-175.66695398035742, -29.223735864956648]}}, {"type": "Feature", "properties": {"norad_id": 40011, "name": "HODOYOSHI-4", "group": "resource", "lat": -36.65520290183415, "lon": 170.27808713791467, "alt_km": 610.3260942256256, "timestamp": "2025-12-01T03:58:49.207518+00:00", "meta": {"OBJECT_NAME": "HODOYOSHI-4", "OBJECT_ID": "2014-033B", "EPOCH": "2025-11-30T20:04:26.092704", "MEAN_MOTION": 14.8741117, "ECCENTRICITY": 0.0022561, "INCLINATION": 97.542, "RA_OF_ASC_NODE": 164.3069, "ARG_OF_PERICENTER": 241.6431, "MEAN_ANOMALY": 118.2511, "EPHEMERIS_TYPE": 0, "CLASSIFICATION_TYPE": "U", "NORAD_CAT_ID": 40011, "ELEMENT_SET_NO": 999, "REV_AT_EPOCH": 61931, "BSTAR": 0.0001943, "MEAN_MOTION_DOT": 1.713e-05, "MEAN_MOTION_DDOT": 0, "GROUP": "resource"}, "tle": {"line1": "1 40011U 14033B   25334.83641311  .00001713  00000+0  19430-3 0  9992", "line2": "2 40011  97.5420 164.3069 0022561 241.6431 118.2511 14.87411170619314"}}, "geometry": {"type": "Point", "coordinates": [170.27808713791467, -36.65520290183415]}}, {"type": "Feature", "properties": {"norad_id": 40013, "name": "DEIMOS-2", "group": "resource", "lat": -70.3779350465282, "lon": 9.330688873278287, "alt_km": 596.7553897123225, "timestamp": "2025-12-01T03:58:49.207528+00:00", "meta": {"OBJECT_NAME": "DEIMOS-2", "OBJECT_ID": "2014-033D", "EPOCH": "2025-11-30T20:25:16.310208", "MEAN_MOTION": 14.92885027, "ECCENTRICITY": 7.41e-05, "INCLINATION": 97.6073, "RA_OF_ASC_NODE": 211.0427, "ARG_OF_PERICENTER": 73.6976, "MEAN_ANOMALY": 286.4326, "EPHEMERIS_TYPE": 0, "CLASSIFICATION_TYPE": "U", "NORAD_CAT_ID": 40013, "ELEMENT_SET_NO": 999, "REV_AT_EPOCH": 60812, "BSTAR": 0.00021046, "MEAN_MOTION_DOT": 2.127e-05, "MEAN_MOTION_DDOT": 0, "GROUP": "resource"}, "tle": {"line1": "1 40013U 14033D   25334.85088322  .00002127  00000+0  21046-3 0  9999", "line2": "2 40013  97.6073 211.0427 0000741  73.6976 286.4326 14.92885027608123"}}, "geometry": {"type": "Point", "coordinates": [9.330688873278287, -70.3779350465282]}}, {"type": "Feature", "properties": {"norad_id": 40015, "name": "HODOYOSHI-3", "group": "resource", "lat": -0.42149543548883756, "lon": 141.56064718483236, "alt_km": 610.5326630204763, "timestamp": "2025-12-01T03:58:49.207538+00:00", "meta": {"OBJECT_NAME": "HODOYOSHI-3", "OBJECT_ID": "2014-033F", "EPOCH": "2025-11-30T16:39:36.592992", "MEAN_MOTION": 14.84738464, "ECCENTRICITY": 0.0031936, "INCLINATION": 97.6195, "RA_OF_ASC_NODE": 141.0533, "ARG_OF_PERICENTER": 289.2295, "MEAN_ANOMALY": 70.5466, "EPHEMERIS_TYPE": 0, "CLASSIFICATION_TYPE": "U", "NORAD_CAT_ID": 40015, "ELEMENT_SET_NO": 999, "REV_AT_EPOCH": 61816, "BSTAR": 0.00022807, "MEAN_MOTION_DOT": 1.897e-05, "MEAN_MOTION_DDOT": 0, "GROUP": "resource"}, "tle": {"line1": "1 40015U 14033F   25334.69417353  .00001897  00000+0  22807-3 0  9992", "line2": "2 40015  97.6195 141.0533 0031936 289.2295  70.5466 14.84738464618164"}}, "geometry": {"type": "Point", "coordinates": [141.56064718483236, -0.42149543548883756]}}, {"type": "Feature", "properties": {"norad_id": 40053, "name": "SPOT 7", "group": "resource", "lat": 2.227633514755351, "lon": 37.19025716675792, "alt_km": 693.6707431386012, "timestamp": "2025-12-01T03:58:49.207550+00:00", "meta": {"OBJECT_NAME": "SPOT 7", "OBJECT_ID": "2014-034A", "EPOCH": "2025-11-30T19:44:59.919936", "MEAN_MOTION": 14.60708461, "ECCENTRICITY": 0.00015, "INCLINATION": 98.0922, "RA_OF_ASC_NODE": 37.1723, "ARG_OF_PERICENTER": 98.3674, "MEAN_ANOMALY": 261.7697, "EPHEMERIS_TYPE": 0, "CLASSIFICATION_TYPE": "U", "NORAD_CAT_ID": 40053, "ELEMENT_SET_NO": 999, "REV_AT_EPOCH": 60817, "BSTAR": 0.00012888, "MEAN_MOTION_DOT": 5.82e-06, "MEAN_MOTION_DDOT": 0, "GROUP": "resource"}, "tle": {"line1": "1 40053U 14034A   25334.82291574  .00000582  00000+0  12888-3 0  9993", "line2": "2 40053  98.0922  37.1723 0001500  98.3674 261.7697 14.60708461608177"}}, "geometry": {"type": "Point", "coordinates": [37.19025716675792, 2.227633514755351]}}, {"type": "Feature", "properties": {"norad_id": 40072, "name": "SKYSAT-B", "group": "resource", "lat": -81.48120255139929, "lon": -2.745683924695576, "alt_km": 613.555665370659, "timestamp": "2025-12-01T03:58:49.207561+00:00", "meta": {"OBJECT_NAME": "SKYSAT-B", "OBJECT_ID": "2014-037D", "EPOCH": "2025-11-30T20:18:14.580576", "MEAN_MOTION": 14.87253846, "ECCENTRICITY": 0.0005171, "INCLINATION": 98.3587, "RA_OF_ASC_NODE": 277.9261, "ARG_OF_PERICENTER": 187.4165, "MEAN_ANOMALY": 172.6974, "EPHEMERIS_TYPE": 0, "CLASSIFICATION_TYPE": "U", "NORAD_CAT_ID": 40072, "ELEMENT_SET_NO": 999, "REV_AT_EPOCH": 61647, "BSTAR": 0.00022662, "MEAN_MOTION_DOT": 1.982e-05, "MEAN_MOTION_DDOT": 0, "GROUP": "resource"}, "tle": {"line1": "1 40072U 14037D   25334.84600209  .00001982  00000+0  22662-3 0  9994", "line2": "2 40072  98.3587 277.9261 0005171 187.4165 172.6974 14.87253846616473"}}, "geometry": {"type": "Point", "coordinates": [-2.745683924695576, -81.48120255139929]}}, {"type": "Feature", "properties": {"norad_id": 40115, "name": "WORLDVIEW-3 (WV-3)", "group": "resource", "lat": -57.14667417791826, "lon": -144.76548140602708, "alt_km": 616.5102920372738, "timestamp": "2025-12-01T03:58:49.207572+00:00", "meta": {"OBJECT_NAME": "WORLDVIEW-3 (WV-3)", "OBJECT_ID": "2014-048A", "EPOCH": "2025-11-30T18:49:44.582592", "MEAN_MOTION": 14.85461761, "ECCENTRICITY": 0.0003955, "INCLINATION": 97.8629, "RA_OF_ASC_NODE": 47.2148, "ARG_OF_PERICENTER": 228.9465, "MEAN_ANOMALY": 131.1409, "EPHEMERIS_TYPE": 0, "CLASSIFICATION_TYPE": "U", "NORAD_CAT_ID": 40115, "ELEMENT_SET_NO": 999, "REV_AT_EPOCH": 61246, "BSTAR": 0.00015135, "MEAN_MOTION_DOT": 1.252e-05, "MEAN_MOTION_DDOT": 0, "GROUP": "resource"}, "tle": {"line1": "1 40115U 14048A   25334.78454378  .00001252  00000+0  15135-3 0  9998", "line2": "2 40115  97.8629  47.2148 0003955 228.9465 131.1409 14.85461761612469"}}, "geometry": {"type": "Point", "coordinates": [-144.76548140602708, -57.14667417791826]}}, {"type": "Feature", "properties": {"norad_id": 40118, "name": "GAOFEN-2", "group": "resource", "lat": -76.37694383323972, "lon": 178.6340163368312, "alt_km": 637.0172701557176, "timestamp": "2025-12-01T03:58:49.207582+00:00", "meta": {"OBJECT_NAME": "GAOFEN-2", "OBJECT_ID": "2014-049A", "EPOCH": "2025-11-30T20:19:36.880896", "MEAN_MOTION": 14.80574135, "ECCENTRICITY": 0.0008075, "INCLINATION": 98.0402, "RA_OF_ASC_NODE": 33.994, "ARG_OF_PERICENTER": 147.29, "MEAN_ANOMALY": 212.8813, "EPHEMERIS_TYPE": 0, "CLASSIFICATION_TYPE": "U", "NORAD_CAT_ID": 40118, "ELEMENT_SET_NO": 999, "REV_AT_EPOCH": 60988, "BSTAR": 0.00010934, "MEAN_MOTION_DOT": 7.85e-06, "MEAN_MOTION_DDOT": 0, "GROUP": "resource"}, "tle": {"line1": "1 40118U 14049A   25334.84695464  .00000785  00000+0  10934-3 0  9994", "line2": "2 40118  98.0402  33.9940 0008075 147.2900 212.8813 14.80574135609884"}}, "geometry": {"type": "Point", "coordinates": [178.6340163368312, -76.37694383323972]}}, {"type": "Feature", "properties": {"norad_id": 40143, "name": "YAOGAN-21", "group": "resource", "lat": -54.692794768864175, "lon": -171.26777563376064, "alt_km": 509.17701567975837, "timestamp": "2025-12-01T03:58:49.207592+00:00", "meta": {"OBJECT_NAME": "YAOGAN-21", "OBJECT_ID": "2014-053A", "EPOCH": "2025-11-30T20:38:44.870784", "MEAN_MOTION": 15.23437114, "ECCENTRICITY": 0.0010348, "INCLINATION": 97.1782, "RA_OF_ASC_NODE": 18.6904, "ARG_OF_PERICENTER": 77.5838, "MEAN_ANOMALY": 282.6557, "EPHEMERIS_TYPE": 0, "CLASSIFICATION_TYPE": "U", "NORAD_CAT_ID": 40143, "ELEMENT_SET_NO": 999, "REV_AT_EPOCH": 62473, "BSTAR": 0.00033314, "MEAN_MOTION_DOT": 7.881e-05, "MEAN_MOTION_DDOT": 0, "GROUP": "resource"}, "tle": {"line1": "1 40143U 14053A   25334.86024156  .00007881  00000+0  33314-3 0  9994", "line2": "2 40143  97.1782  18.6904 0010348  77.5838 282.6557 15.23437114624738"}}, "geometry": {"type": "Point", "coordinates": [-171.26777563376064, -54.692794768864175]}}]}